[{"OBJECT_NAME":"FLOCK 4G-21","OBJECT_ID":"2025-009AU","EPOCH":"2026-03-09T04:40:37.351200","MEAN_MOTION":15.28381075,"ECCENTRICITY":4.655e-5,"INCLINATION":97.4032,"RA_OF_ASC_NODE":151.1274,"ARG_OF_PERICENTER":329.5782,"MEAN_ANOMALY":30.5431,"EPHEMERIS_TYPE":0,"CLASSIFICATION_TYPE":"U","NORAD_CAT_ID":62651,"ELEMENT_SET_NO":999,"REV_AT_EPOCH":6367,"BSTAR":0.00049618643,"MEAN_MOTION_DOT":0.00013648,"MEAN_MOTION_DDOT":0},{"OBJECT_NAME":"STARLINK-33813","OBJECT_ID":"2025-076S","EPOCH":"2026-03-09T02:09:30.181824","MEAN_MOTION":15.27589924,"ECCENTRICITY":0.00023175,"INCLINATION":43.004,"RA_OF_ASC_NODE":324.6511,"ARG_OF_PERICENTER":266.7062,"MEAN_ANOMALY":93.3524,"EPHEMERIS_TYPE":0,"CLASSIFICATION_TYPE":"U","NORAD_CAT_ID":63585,"ELEMENT_SET_NO":999,"REV_AT_EPOCH":5174,"BSTAR":0.0018868477,"MEAN_MOTION_DOT":0.00052044,"MEAN_MOTION_DDOT":0}]
